{
  "type": "FeatureCollection",
  "features": [
    {
      "type": "Feature",
      "properties": {
        "norad_id": 41581,
        "name": "INTELSAT 31 (IS-31)",
        "group": "intelsat",
        "lat": -0.019062487049329994,
        "lon": -121.0872359091034,
        "alt_km": 35778.33418613191,
        "timestamp": "2025-12-10T16:57:11.302536+00:00",
        "meta_object_name": "INTELSAT 31 (IS-31)",
        "meta_object_id": "2016-035A",
        "meta_epoch": "2025-12-10T01:11:38.647968",
        "meta_mean_motion": 1.00271715,
        "meta_eccentricity": 0.0001931,
        "meta_inclination": 0.0151,
        "meta_ra_of_asc_node": 272.9636,
        "meta_arg_of_pericenter": 308.7299,
        "meta_mean_anomaly": 140.183,
        "meta_ephemeris_type": 0,
        "meta_classification_type": "U",
        "meta_norad_cat_id": 41581,
        "meta_element_set_no": 999,
        "meta_rev_at_epoch": 3478,
        "meta_bstar": 0,
        "meta_mean_motion_dot": -1.48e-06,
        "meta_mean_motion_ddot": 0,
        "tle_line1": "1 41581U 16035A   25344.04975287 -.00000148  00000+0  00000+0 0  9996",
        "tle_line2": "2 41581   0.0151 272.9636 0001931 308.7299 140.1830  1.00271715 34788"
      },
      "geometry": {
        "type": "Point",
        "coordinates": [
          -121.0872359091034,
          -0.019062487049329994
        ]
      }
    },
    {
      "type": "Feature",
      "properties": {
        "norad_id": 41747,
        "name": "INTELSAT 36 (IS-36)",
        "group": "intelsat",
        "lat": 0.02093805854662664,
        "lon": 42.47485500245052,
        "alt_km": 35785.83929351671,
        "timestamp": "2025-12-10T16:57:11.302547+00:00",
        "meta_object_name": "INTELSAT 36 (IS-36)",
        "meta_object_id": "2016-053A",
        "meta_epoch": "2025-12-10T08:41:38.596128",
        "meta_mean_motion": 1.00270031,
        "meta_eccentricity": 0.000143,
        "meta_inclination": 0.0125,
        "meta_ra_of_asc_node": 8.3265,
        "meta_arg_of_pericenter": 311.2269,
        "meta_mean_anomaly": 318.6852,
        "meta_ephemeris_type": 0,
        "meta_classification_type": "U",
        "meta_norad_cat_id": 41747,
        "meta_element_set_no": 999,
        "meta_rev_at_epoch": 3405,
        "meta_bstar": 0,
        "meta_mean_motion_dot": -2e-07,
        "meta_mean_motion_ddot": 0,
        "tle_line1": "1 41747U 16053A   25344.36225227 -.00000020  00000+0  00000+0 0  9996",
        "tle_line2": "2 41747   0.0125   8.3265 0001430 311.2269 318.6852  1.00270031 34058"
      },
      "geometry": {
        "type": "Point",
        "coordinates": [
          42.47485500245052,
          0.02093805854662664
        ]
      }
    },
    {
      "type": "Feature",
      "properties": {
        "norad_id": 41945,
        "name": "INTELSAT 32E (IS-32E)",
        "group": "intelsat",
        "lat": -0.029187287264403505,
        "lon": -69.21701544544587,
        "alt_km": 35786.08634926352,
        "timestamp": "2025-12-10T16:57:11.302559+00:00",
        "meta_object_name": "INTELSAT 32E (IS-32E)",
        "meta_object_id": "2017-007B",
        "meta_epoch": "2025-12-09T20:12:55.228896",
        "meta_mean_motion": 1.00269426,
        "meta_eccentricity": 4.394e-05,
        "meta_inclination": 0.0294,
        "meta_ra_of_asc_node": 72.1437,
        "meta_arg_of_pericenter": 284.528,
        "meta_mean_anomaly": 342.2081,
        "meta_ephemeris_type": 0,
        "meta_classification_type": "U",
        "meta_norad_cat_id": 41945,
        "meta_element_set_no": 999,
        "meta_rev_at_epoch": 3232,
        "meta_bstar": 0,
        "meta_mean_motion_dot": -2.66e-06,
        "meta_mean_motion_ddot": 0,
        "tle_line1": "1 41945U 17007B   25343.84230589 -.00000266  00000+0  00000+0 0  9997",
        "tle_line2": "2 41945   0.0294  72.1437 0000439 284.5280 342.2081  1.00269426 32329"
      },
      "geometry": {
        "type": "Point",
        "coordinates": [
          -69.21701544544587,
          -0.029187287264403505
        ]
      }
    },
    {
      "type": "Feature",
      "properties": {
        "norad_id": 42818,
        "name": "INTELSAT 35E (IS-35E)",
        "group": "intelsat",
        "lat": -0.022582960001775693,
        "lon": -60.524972874341266,
        "alt_km": 35778.80809779031,
        "timestamp": "2025-12-10T16:57:11.302570+00:00",
        "meta_object_name": "INTELSAT 35E (IS-35E)",
        "meta_object_id": "2017-041A",
        "meta_epoch": "2025-12-09T20:15:24.988608",
        "meta_mean_motion": 1.0026928,
        "meta_eccentricity": 0.0002289,
        "meta_inclination": 0.0182,
        "meta_ra_of_asc_node": 336.435,
        "meta_arg_of_pericenter": 289.2922,
        "meta_mean_anomaly": 82.4516,
        "meta_ephemeris_type": 0,
        "meta_classification_type": "U",
        "meta_norad_cat_id": 42818,
        "meta_element_set_no": 999,
        "meta_rev_at_epoch": 3091,
        "meta_bstar": 0,
        "meta_mean_motion_dot": -2.35e-06,
        "meta_mean_motion_ddot": 0,
        "tle_line1": "1 42818U 17041A   25343.84403922 -.00000235  00000+0  00000+0 0  9994",
        "tle_line2": "2 42818   0.0182 336.4350 0002289 289.2922  82.4516  1.00269280 30912"
      },
      "geometry": {
        "type": "Point",
        "coordinates": [
          -60.524972874341266,
          -0.022582960001775693
        ]
      }
    },
    {
      "type": "Feature",
      "properties": {
        "norad_id": 42950,
        "name": "INTELSAT 37E (IS-37E)",
        "group": "intelsat",
        "lat": -0.02136773788790334,
        "lon": -43.998427009510685,
        "alt_km": 35779.60167168204,
        "timestamp": "2025-12-10T16:57:11.302582+00:00",
        "meta_object_name": "INTELSAT 37E (IS-37E)",
        "meta_object_id": "2017-059A",
        "meta_epoch": "2025-12-10T06:37:38.585856",
        "meta_mean_motion": 1.00270776,
        "meta_eccentricity": 0.0003334,
        "meta_inclination": 0.0135,
        "meta_ra_of_asc_node": 25.5168,
        "meta_arg_of_pericenter": 229.1399,
        "meta_mean_anomaly": 266.0057,
        "meta_ephemeris_type": 0,
        "meta_classification_type": "U",
        "meta_norad_cat_id": 42950,
        "meta_element_set_no": 999,
        "meta_rev_at_epoch": 3017,
        "meta_bstar": 0,
        "meta_mean_motion_dot": -1.37e-06,
        "meta_mean_motion_ddot": 0,
        "tle_line1": "1 42950U 17059A   25344.27614104 -.00000137  00000+0  00000+0 0  9995",
        "tle_line2": "2 42950   0.0135  25.5168 0003334 229.1399 266.0057  1.00270776 30173"
      },
      "geometry": {
        "type": "Point",
        "coordinates": [
          -43.998427009510685,
          -0.02136773788790334
        ]
      }
    },
    {
      "type": "Feature",
      "properties": {
        "norad_id": 43632,
        "name": "AZERSPACE 2 (IS-38)",
        "group": "intelsat",
        "lat": 0.01978022773856357,
        "lon": 19.09266883348917,
        "alt_km": 35789.120754211624,
        "timestamp": "2025-12-10T16:57:11.302593+00:00",
        "meta_object_name": "AZERSPACE 2 (IS-38)",
        "meta_object_id": "2018-074A",
        "meta_epoch": "2025-12-10T02:36:38.720736",
        "meta_mean_motion": 1.00270845,
        "meta_eccentricity": 0.0001522,
        "meta_inclination": 0.0163,
        "meta_ra_of_asc_node": 347.1733,
        "meta_arg_of_pericenter": 275.6759,
        "meta_mean_anomaly": 260.508,
        "meta_ephemeris_type": 0,
        "meta_classification_type": "U",
        "meta_norad_cat_id": 43632,
        "meta_element_set_no": 999,
        "meta_rev_at_epoch": 2655,
        "meta_bstar": 0,
        "meta_mean_motion_dot": 1.4e-06,
        "meta_mean_motion_ddot": 0,
        "tle_line1": "1 43632U 18074A   25344.10878149  .00000140  00000+0  00000+0 0  9997",
        "tle_line2": "2 43632   0.0163 347.1733 0001522 275.6759 260.5080  1.00270845 26555"
      },
      "geometry": {
        "type": "Point",
        "coordinates": [
          19.09266883348917,
          0.01978022773856357
        ]
      }
    },
    {
      "type": "Feature",
      "properties": {
        "norad_id": 43633,
        "name": "HORIZONS-3E",
        "group": "intelsat",
        "lat": -0.023521927218537176,
        "lon": 142.9692371048404,
        "alt_km": 35791.67027718393,
        "timestamp": "2025-12-10T16:57:11.302605+00:00",
        "meta_object_name": "HORIZONS-3E",
        "meta_object_id": "2018-074B",
        "meta_epoch": "2025-12-10T11:00:31.490784",
        "meta_mean_motion": 1.00267072,
        "meta_eccentricity": 0.0001188,
        "meta_inclination": 0.0424,
        "meta_ra_of_asc_node": 176.8678,
        "meta_arg_of_pericenter": 114.5988,
        "meta_mean_anomaly": 122.1073,
        "meta_ephemeris_type": 0,
        "meta_classification_type": "U",
        "meta_norad_cat_id": 43633,
        "meta_element_set_no": 999,
        "meta_rev_at_epoch": 2644,
        "meta_bstar": 0,
        "meta_mean_motion_dot": -2.7e-07,
        "meta_mean_motion_ddot": 0,
        "tle_line1": "1 43633U 18074B   25344.45869781 -.00000027  00000+0  00000+0 0  9993",
        "tle_line2": "2 43633   0.0424 176.8678 0001188 114.5988 122.1073  1.00267072 26445"
      },
      "geometry": {
        "type": "Point",
        "coordinates": [
          142.9692371048404,
          -0.023521927218537176
        ]
      }
    }
  ]
}